NORAD_CAT_ID,OBJECT_NAME,OBJECT_TYPE,EPOCH,MEAN_MOTION,ECCENTRICITY,INCLINATION,RA_OF_ASC_NODE,ARG_OF_PERICENTER,MEAN_ANOMALY,BSTAR,MEAN_MOTION_DOT,MEAN_MOTION_DDOT,TLE_LINE0,TLE_LINE1,TLE_LINE2,SEMIMAJOR_AXIS,PERIOD,APOGEE,PERIGEE,DECAYED
53858.0,STARLINK-4798,PAYLOAD,2023-10-22 02:52:57,15.08871089,0.0001344,53.217,227.9658,87.6041,272.5105,0.0011164,0.00017539,0.0,0 STARLINK-4798,1 53858U 22114AS  23295.12010560  .00017539  00000-0  11164-2 0  9995,2 53858  53.2170 227.9658 0001344  87.6041 272.5105 15.08871089 61293,6917.785,95.436,540.58,538.721,0.0
53858.0,STARLINK-4798,PAYLOAD,2023-10-22 12:25:16,15.08842249,0.0001802,53.2169,226.1817,93.7082,266.4116,-0.00050613,-8.335e-05,0.0,0 STARLINK-4798,1 53858U 22114AS  23295.51754739 -.00008335  00000-0 -50613-3 0  9990,2 53858  53.2169 226.1817 0001802  93.7082 266.4116 15.08842249 61358,6917.874,95.437,540.985,538.492,0.0
53858.0,STARLINK-4798,PAYLOAD,2023-10-23 02:43:44,15.08836859,0.0001691,53.2174,223.5076,102.8218,257.2963,8.9716e-05,1.14e-05,0.0,0 STARLINK-4798,1 53858U 22114AS  23296.11371058  .00001140  00000-0  89716-4 0  9998,2 53858  53.2174 223.5076 0001691 102.8218 257.2963 15.08836859 61449,6917.89,95.438,540.925,538.585,0.0
53858.0,STARLINK-4798,PAYLOAD,2023-10-24 04:09:55,15.08839659,0.0001568,53.2173,218.7488,101.0425,259.0744,0.00054168,8.343e-05,0.0,0 STARLINK-4798,1 53858U 22114AS  23297.17355861  .00008343  00000-0  54168-3 0  9993,2 53858  53.2173 218.7488 0001568 101.0425 259.0744 15.08839659 61601,6917.881,95.438,540.831,538.662,0.0
53858.0,STARLINK-4798,PAYLOAD,2023-10-24 12:06:51,15.08835684,0.0001593,53.217,217.2606,97.1636,262.9538,0.000284,4.234e-05,0.0,0 STARLINK-4798,1 53858U 22114AS  23297.50476109  .00004234  00000-0  28400-3 0  9994,2 53858  53.2170 217.2606 0001593  97.1636 262.9538 15.08835684 62194,6917.894,95.438,540.861,538.657,0.0
53858.0,STARLINK-4798,PAYLOAD,2023-10-25 04:00:42,15.08853399,0.0001401,53.2165,214.2852,99.3609,260.7541,0.0005845,9.03e-05,0.0,0 STARLINK-4798,1 53858U 22114AS  23298.16715654  .00009030  00000-0  58450-3 0  9995,2 53858  53.2165 214.2852 0001401  99.3609 260.7541 15.08853399 62294,6917.839,95.437,540.674,538.735,0.0
53858.0,STARLINK-4798,PAYLOAD,2023-10-26 03:51:29,15.08851584,0.0001541,53.2175,209.8235,103.5286,256.5878,0.0003765,5.711e-05,0.0,0 STARLINK-4798,1 53858U 22114AS  23299.16075655  .00005711  00000-0  37650-3 0  9997,2 53858  53.2175 209.8235 0001541 103.5286 256.5878 15.08851584 61901,6917.845,95.437,540.776,538.644,0.0
53858.0,STARLINK-4798,PAYLOAD,2023-10-26 22:56:06,15.0885248,0.0001495,53.2166,206.2536,86.0885,274.0278,0.00035259,5.33e-05,0.0,0 STARLINK-4798,1 53858U 22114AS  23299.95563330  .00005330  00000-0  35259-3 0  9996,2 53858  53.2166 206.2536 0001495  86.0885 274.0278 15.08852480 62562,6917.842,95.437,540.741,538.673,0.0
53858.0,STARLINK-4798,PAYLOAD,2023-10-27 03:42:15,15.0886284,0.0001667,53.2177,205.361,103.3939,256.7239,0.00058946,9.112e-05,0.0,0 STARLINK-4798,1 53858U 22114AS  23300.15434928  .00009112  00000-0  58946-3 0  9991,2 53858  53.2177 205.3610 0001667 103.3939 256.7239 15.08862840 62599,6917.811,95.436,540.829,538.522,0.0
53858.0,STARLINK-4798,PAYLOAD,2023-10-27 21:11:30,15.08839169,0.0001426,53.2176,202.0934,99.5087,260.6066,4.9457e-05,4.99e-06,0.0,0 STARLINK-4798,1 53858U 22114AS  23300.88299511  .00000499  00000-0  49457-4 0  9995,2 53858  53.2176 202.0934 0001426  99.5087 260.6066 15.08839169 62167,6917.883,95.438,540.734,538.761,0.0
53858.0,STARLINK-4798,PAYLOAD,2023-10-28 09:54:36,15.08836927,0.0001438,53.2168,199.7135,101.6106,258.5048,3.6576e-05,2.94e-06,0.0,0 STARLINK-4798,1 53858U 22114AS  23301.41291748  .00000294  00000-0  36576-4 0  9990,2 53858  53.2168 199.7135 0001438 101.6106 258.5048 15.08836927 62786,6917.89,95.438,540.75,538.76,0.0
53858.0,STARLINK-4798,PAYLOAD,2023-10-28 21:02:18,15.08832119,0.0001615,53.2173,197.6329,102.0832,258.0342,-4.0691e-05,-9.35e-06,0.0,0 STARLINK-4798,1 53858U 22114AS  23301.87660248 -.00000935  00000-0 -40691-4 0  9992,2 53858  53.2173 197.6329 0001615 102.0832 258.0342 15.08832119 62312,6917.904,95.438,540.887,538.652,0.0
53858.0,STARLINK-4798,PAYLOAD,2023-10-28 22:37:41,15.08835687,0.0001695,53.2173,197.3362,99.4448,260.6736,-4.517e-05,-1.007e-05,0.0,0 STARLINK-4798,1 53858U 22114AS  23301.94283969 -.00001007  00000-0 -45170-4 0  9999,2 53858  53.2173 197.3362 0001695  99.4448 260.6736 15.08835687 62865,6917.894,95.438,540.931,538.586,0.0
53858.0,STARLINK-4798,PAYLOAD,2023-10-29 03:23:50,15.08843599,0.0001583,53.2172,196.4441,96.3294,263.7878,0.00037216,5.64e-05,0.0,0 STARLINK-4798,1 53858U 22114AS  23302.14155902  .00005640  00000-0  37216-3 0  9993,2 53858  53.2172 196.4441 0001583  96.3294 263.7878 15.08843599 62359,6917.869,95.437,540.829,538.639,0.0
53858.0,STARLINK-4798,PAYLOAD,2023-10-29 09:45:23,15.08842125,0.0001462,53.2166,195.2548,97.6042,262.5116,0.00033246,5.007e-05,0.0,0 STARLINK-4798,1 53858U 22114AS  23302.40652153  .00005007  00000-0  33246-3 0  9998,2 53858  53.2166 195.2548 0001462  97.6042 262.5116 15.08842125 62938,6917.874,95.437,540.75,538.728,0.0
53858.0,STARLINK-4798,PAYLOAD,2023-10-29 20:53:05,15.08840907,0.0001519,53.2169,193.1741,100.8649,259.2514,0.0001853,2.662e-05,0.0,0 STARLINK-4798,1 53858U 22114AS  23302.87020232  .00002662  00000-0  18530-3 0  9999,2 53858  53.2169 193.1741 0001519 100.8649 259.2514 15.08840907 62465,6917.878,95.437,540.793,538.692,0.0
53858.0,STARLINK-4798,PAYLOAD,2023-10-29 22:28:28,15.0884202,0.000153,53.2167,192.8768,100.6595,259.457,0.00019471,2.812e-05,0.0,0 STARLINK-4798,1 53858U 22114AS  23302.93644170  .00002812  00000-0  19471-3 0  9991,2 53858  53.2167 192.8768 0001530 100.6595 259.4570 15.08842020 63013,6917.874,95.437,540.798,538.681,0.0
53858.0,STARLINK-4798,PAYLOAD,2023-10-30 03:14:37,15.08853174,0.0001575,53.2175,191.986,96.8278,263.2893,0.00038999,5.926e-05,0.0,0 STARLINK-4798,1 53858U 22114AS  23303.13515719  .00005926  00000-0  38999-3 0  9995,2 53858  53.2175 191.9860 0001575  96.8278 263.2893 15.08853174 62504,6917.84,95.437,540.795,538.616,0.0
53858.0,STARLINK-4798,PAYLOAD,2023-10-30 09:36:10,15.08838291,0.0001829,53.2171,190.7943,88.1085,272.0116,9.2585e-05,1.186e-05,0.0,0 STARLINK-4798,1 53858U 22114AS  23303.40012336  .00001186  00000-0  92585-4 0  9998,2 53858  53.2171 190.7943 0001829  88.1085 272.0116 15.08838291 62544,6917.886,95.438,541.016,538.485,0.0
53858.0,STARLINK-4798,PAYLOAD,2023-10-30 22:19:16,15.08832299,0.000183,53.2178,188.4193,92.9875,267.1327,-6.3952e-05,-1.306e-05,0.0,0 STARLINK-4798,1 53858U 22114AS  23303.93004969 -.00001306  00000-0 -63952-4 0  9991,2 53858  53.2178 188.4193 0001830  92.9875 267.1327 15.08832299 63164,6917.904,95.438,541.035,538.503,0.0
53858.0,STARLINK-4798,PAYLOAD,2023-10-31 09:26:57,15.08840033,0.0001655,53.2172,186.3366,92.1998,267.9184,4.8383e-05,4.82e-06,0.0,0 STARLINK-4798,1 53858U 22114AS  23304.39372624  .00000482  00000-0  48383-4 0  9991,2 53858  53.2172 186.3366 0001655  92.1998 267.9184 15.08840033 63232,6917.88,95.438,540.89,538.6,0.0
53858.0,STARLINK-4798,PAYLOAD,2023-10-31 20:34:39,15.0884847,0.000158,53.2172,184.2559,91.8322,268.2851,0.00021294,3.103e-05,0.0,0 STARLINK-4798,1 53858U 22114AS  23304.85740223  .00003103  00000-0  21294-3 0  9990,2 53858  53.2172 184.2559 0001580  91.8322 268.2851 15.08848470 62762,6917.854,95.437,540.813,538.626,0.0
53858.0,STARLINK-4798,PAYLOAD,2023-10-31 22:10:02,15.08849357,0.0001486,53.216,183.9588,92.5986,267.5176,0.00029363,4.389e-05,0.0,0 STARLINK-4798,1 53858U 22114AS  23304.92364202  .00004389  00000-0  29363-3 0  9999,2 53858  53.2160 183.9588 0001486  92.5986 267.5176 15.08849357 63315,6917.852,95.437,540.745,538.689,0.0
53858.0,STARLINK-4798,PAYLOAD,2023-11-01 09:17:44,15.08846693,0.0001701,53.2155,181.8751,82.3241,277.7944,0.00025777,3.817e-05,0.0,0 STARLINK-4798,1 53858U 22114AS  23305.38732384  .00003817  00000-0  25777-3 0  9990,2 53858  53.2155 181.8751 0001701  82.3241 277.7944 15.08846693 63382,6917.86,95.437,540.902,538.548,0.0
53858.0,STARLINK-4798,PAYLOAD,2023-11-01 20:25:26,15.08843161,0.0001866,53.2155,179.7928,81.5283,278.592,0.00020858,3.033e-05,0.0,0 STARLINK-4798,1 53858U 22114AS  23305.85100523  .00003033  00000-0  20858-3 0  9991,2 53858  53.2155 179.7928 0001866  81.5283 278.5920 15.08843161 62911,6917.871,95.437,541.027,538.445,0.0
53858.0,STARLINK-4798,PAYLOAD,2023-11-01 22:00:49,15.08842774,0.0001619,53.2148,179.4955,82.0766,278.0409,0.00017784,2.544e-05,0.0,0 STARLINK-4798,1 53858U 22114AS  23305.91724452  .00002544  00000-0  17784-3 0  9991,2 53858  53.2148 179.4955 0001619  82.0766 278.0409 15.08842774 63465,6917.872,95.437,540.857,538.617,0.0
53858.0,STARLINK-4798,PAYLOAD,2023-11-02 09:08:31,15.08846756,0.0001484,53.2148,177.4142,83.1174,276.9987,0.00017461,2.493e-05,0.0,0 STARLINK-4798,1 53858U 22114AS  23306.38092188  .00002493  00000-0  17461-3 0  9992,2 53858  53.2148 177.4142 0001484  83.1174 276.9987 15.08846756 63536,6917.86,95.437,540.751,538.698,0.0
53858.0,STARLINK-4798,PAYLOAD,2023-11-02 21:51:36,15.08847522,0.0001605,53.216,175.0343,94.369,265.7486,0.00010731,1.421e-05,0.0,0 STARLINK-4798,1 53858U 22114AS  23306.91084041  .00001421  00000-0  10731-3 0  9993,2 53858  53.2160 175.0343 0001605  94.3690 265.7486 15.08847522 63610,6917.857,95.437,540.833,538.612,0.0
53858.0,STARLINK-4798,PAYLOAD,2023-11-03 21:42:24,15.08837692,0.0001513,53.2168,170.5714,102.2323,257.8839,0.00016835,2.392e-05,0.0,0 STARLINK-4798,1 53858U 22114AS  23307.90444570  .00002392  00000-0  16835-3 0  9999,2 53858  53.2168 170.5714 0001513 102.2323 257.8839 15.08837692 63228,6917.887,95.438,540.799,538.706,0.0
53858.0,STARLINK-4798,PAYLOAD,2023-11-04 21:33:11,15.08841255,0.00014,53.2161,166.115,92.9561,267.1591,0.00013969,1.936e-05,0.0,0 STARLINK-4798,1 53858U 22114AS  23308.89804609  .00001936  00000-0  13969-3 0  9999,2 53858  53.2161 166.1150 0001400  92.9561 267.1591 15.08841255 63915,6917.877,95.437,540.71,538.773,0.0
